GLOBALSTAR M023 [+]     
1 25621U 99004A   23344.31052407 -.00000160  00000+0 -31384-3 0  9996
2 25621  52.0128 302.9633 0010095 341.7817 182.8218 12.62446149145647
GLOBALSTAR M040 [-]     
1 25622U 99004B   23344.30558594 -.00000084  00000+0  10862-3 0  9996
2 25622  51.9933 306.3232 0000321 323.9613 183.8095 12.61962043145199
GLOBALSTAR M036 [-]     
1 25623U 99004C   23344.18506553 -.00000135  00000+0 -76380-3 0  9996
2 25623  51.9971 263.1273 0012172  69.1632  79.4956 11.86559101113097
GLOBALSTAR M038 [-]     
1 25624U 99004D   23344.88256417 -.00000058  00000+0  30836-3 0  9994
2 25624  51.9959 227.8512 0002084  10.3844  71.1496 12.32489298134026
GLOBALSTAR M022 [-]     
1 25649U 99012A   23344.89410110 -.00000087  00000+0  12160-5 0  9997
2 25649  52.0067 357.6888 0002710 150.2941 276.0543 12.02473621109695
GLOBALSTAR M041 [-]     
1 25650U 99012B   23344.84333350 -.00000051  00000+0  43702-3 0  9999
2 25650  52.0000 222.3794 0001679 336.5677  23.5083 11.96650846111916
GLOBALSTAR M046 [-]     
1 25651U 99012C   23344.94785642  .00000035  00000+0  13692-2 0  9991
2 25651  52.0075 327.9059 0001842 227.2309 218.5669 12.09380481116602
GLOBALSTAR M037 [+]     
1 25652U 99012D   23344.56885146 -.00000119  00000+0 -84692-4 0  9995
2 25652  52.0014  73.0072 0002060  59.2808  44.7997 12.62390812141227
